SARAL                   
1 39086U 13009A   22336.84661008  .00000069  00000+0  41806-4 0  9995
2 39086  98.5452 160.0139 0001902 111.5732 248.5654 14.32050529510587
GAOFEN 1                
1 39150U 13018A   22337.45209804  .00000511  00000+0  80634-4 0  9991
2 39150  98.0554  43.6353 0023342  99.3897 260.9959 14.76449544517678
VNREDSAT 1              
1 39160U 13021B   22337.37338578  .00000461  00000+0  98850-4 0  9991
2 39160  98.0636  49.0993 0001076 105.8007 254.3315 14.63033392511310
ARIRANG-5 (KOMPSAT-5)   
1 39227U 13042A   22337.52204781  .00001224  00000+0  91804-4 0  9993
2 39227  97.6299 161.1001 0001961 149.2350 295.6897 15.04502579509703
SKYSAT-A                
1 39418U 13066C   22337.46929337  .00001938  00000+0  15704-3 0  9991
2 39418  97.5326  44.1734 0033541  47.0051 313.3976 15.00421236493995
DUBAISAT-2              
1 39419U 13066D   22337.35151240  .00001438  00000+0  13442-3 0  9992
2 39419  97.4301   0.7451 0014899  72.5284 287.7584 14.95517572492437
GPM-CORE                
1 39574U 14009C   22336.83558926  .00018777  00000+0  27023-3 0  9990
2 39574  65.0001 335.1620 0011034 261.0733  98.9164 15.56073768497806
SENTINEL-1A             
1 39634U 14016A   22337.34484463 -.00000026  00000+0  42989-5 0  9995
2 39634  98.1817 342.4948 0001332  85.4401 274.6926 14.59200603461654
KAZEOSAT 1              
1 39731U 14024A   22337.37954856  .00000147  00000+0  58152-4 0  9994
2 39731  98.4504  51.3364 0001055  78.9685 281.1624 14.41994578452435
ALOS-2                  
1 39766U 14029A   22337.55464498 -.00000080  00000+0 -38247-5 0  9997
2 39766  97.9227  72.2627 0001388  92.9970 267.1394 14.79470670460637
KAZEOSAT 2              
1 40010U 14033A   22337.36280331  .00000417  00000+0  58788-4 0  9990
2 40010  97.6971 216.4116 0012839 243.6459 116.3421 14.82081357457466
HODOYOSHI-4             
1 40011U 14033B   22337.40407152  .00000810  00000+0  10806-3 0  9993
2 40011  97.6500 203.4314 0024963 243.9932 115.8710 14.81956743457117
DEIMOS-2                
1 40013U 14033D   22337.37022838  .00001255  00000+0  15059-3 0  9994
2 40013  97.7413 230.0430 0000683  29.6469 330.4773 14.85726168458277
HODOYOSHI-3             
1 40015U 14033F   22337.53940068  .00000511  00000+0  74972-4 0  9992
2 40015  97.6203 182.9207 0035216 271.5966  88.1212 14.79118909456322
SPOT 7                  
1 40053U 14034A   22337.39470149  .00000236  00000+0  60409-4 0  9991
2 40053  98.1531  41.8828 0001147  80.0985 280.0346 14.58558876448719
SKYSAT-B                
1 40072U 14037D   22336.43720970  .00000647  00000+0  89012-4 0  9996
2 40072  98.3834 213.0410 0007193 128.5224 231.6634 14.81961813454128
WORLDVIEW-3 (WV-3)      
1 40115U 14048A   22336.82795651  .00000638  00000+0  80874-4 0  9994
2 40115  97.8401  49.2348 0001478  26.5652 333.5638 14.85110653450125
GAOFEN 2                
1 40118U 14049A   22337.58545633  .00000725  00000+0  10083-3 0  9996
2 40118  97.7432  40.4141 0007499 113.8517 246.3489 14.80647779448125
YAOGAN 21               
1 40143U 14053A   22337.53578222  .00005405  00000+0  22817-3 0  9992
2 40143  97.3320  41.2506 0015272 350.3339 121.5727 15.23580753458291
YAOGAN 22               
1 40275U 14063A   22337.56895883 -.00000008  00000+0  10000-3 0  9993
2 40275 100.5886  97.8824 0006164 219.5624 140.5033 13.15447112389984
ASNARO                  
1 40298U 14070A   22337.54244220  .00007378  00000+0  35022-3 0  9994
2 40298  97.4572  57.6861 0003546 121.8090   3.3842 15.19540425447877
HODOYOSHI-1             
1 40299U 14070B   22337.52820043  .00005703  00000+0  20599-3 0  9999
2 40299  97.2241  40.6745 0010093 254.4822 216.9725 15.28812657448875
QSAT-EOS                
1 40301U 14070D   22337.53216957  .00029106  00000+0  65362-3 0  9997
2 40301  97.1872  42.0317 0016340 214.9088 258.0994 15.43182621449509
YAOGAN 23               
1 40305U 14071A   22337.53761215  .00007169  00000+0  30026-3 0  9998
2 40305  97.6282 291.2077 0001633  71.6549  39.8945 15.23858417446287
YAOGAN 24               
1 40310U 14072A   22337.42152931  .00000609  00000+0  95253-4 0  9998
2 40310  97.9945  95.8645 0017947  92.2017 268.1259 14.76179177433169
CBERS 4                 
1 40336U 14079A   22337.58684327 -.00000957  00000+0 -31789-3 0  9990
2 40336  98.4675  48.4605 0000840  80.2998 279.8257 14.35454804418676
RESURS P2               
1 40360U 14087A   22337.50068468  .00006336  00000+0  16801-3 0  9993
2 40360  97.1978  59.1428 0008413 189.4257 227.0804 15.38635521444236
YAOGAN 26               
1 40362U 14088A   22337.49456270  .00005882  00000+0  24824-3 0  9995
2 40362  97.1249  19.0580 0004563 212.2721 286.5074 15.23628012441761
SMAP                    
1 40376U 15003A   22337.04478981  .00000346  00000+0  75992-4 0  9995
2 40376  98.1285 341.4025 0001179  65.8026 294.3299 14.63391019418647
KOMPSAT-3A              
1 40536U 15014A   22337.47477639  .00002861  00000+0  17093-3 0  9992
2 40536  97.5496 277.9348 0002806 148.7195 304.8470 15.11885530424587
SENTINEL-2A             
1 40697U 15028A   22337.49423458 -.00000340  00000+0 -11301-3 0  9995
2 40697  98.5666  49.8128 0001099  97.2936 262.8410 14.30812933389024
GAOFEN 8                
1 40701U 15030A   22337.50241494  .00007204  00000+0  30576-3 0  9993
2 40701  97.5834 113.5938 0002669 211.5657 189.5934 15.23398990414120
CARBONITE 1 (CBNT-1)    
1 40718U 15032D   22337.59030414  .00000952  00000+0  14603-3 0  9996
2 40718  97.7111 194.3969 0016076 183.0513 177.0618 14.75717773398368
YAOGAN 27               
1 40878U 15040A   22337.54463869 -.00000004  00000+0  10000-3 0  9997
2 40878 100.1140   2.0918 0007930 317.7305  42.3194 13.15983931349272
GAOFEN 9-01             
1 40894U 15047A   22337.43144593  .00000485  00000+0  76612-4 0  9994
2 40894  97.7990  42.1755 0033499  26.5051 333.7870 14.76291661389115
LAPAN-A2                
1 40931U 15052B   22337.34687660  .00000967  00000+0  45073-4 0  9991
2 40931   5.9956  44.1851 0013652  38.4525 321.6591 14.76931434388356
YAOGAN 28               
1 41026U 15064A   22337.57807964  .00005404  00000+0  22923-3 0  9995
2 41026  97.5761 121.6866 0007200  90.4024 338.5146 15.23522913393983
YAOGAN 29               
1 41038U 15069A   22337.33121630  .00000304  00000+0  46124-4 0  9990
2 41038  98.0617 338.3777 0000449  41.8569 318.2684 14.81001352379283
KENT RIDGE 1            
1 41167U 15077B   22337.49755588  .00002356  00000+0  99194-4 0  9998
2 41167  14.9788  56.4487 0010763 193.8626 274.2210 15.10596550384846
TELEOS 1                
1 41169U 15077D   22337.48934555  .00005557  00000+0  25550-3 0  9992
2 41169  14.9816  19.6650 0009421 259.4645 100.4648 15.14568205385174
GAOFEN 4                
1 41194U 15083A   22336.85834987 -.00000331  00000+0  00000+0 0  9990
2 41194   0.0284  45.0828 0005021 168.9400 272.3665  1.00273739 25569
JASON-3                 
1 41240U 16002A   22336.88598291 -.00000052  00000+0  39858-4 0  9990
2 41240  66.0416 299.2330 0007855 268.2077  91.8039 12.80930694321481
SENTINEL-3A             
1 41335U 16011A   22337.42413551  .00000080  00000+0  51029-4 0  9995
2 41335  98.6197  42.2646 0001019  97.9896 262.1400 14.26738947353862
ZIYUAN 3-2 (ZY 3-2)     
1 41556U 16033A   22337.50250097  .00004844  00000+0  22062-3 0  9993
2 41556  97.5181  46.1622 0003192  68.2926 348.8024 15.21156400361603
NUSAT-1 (FRESCO)        
1 41557U 16033B   22337.48092392  .00018559  00000+0  46698-3 0  9992
2 41557  97.3895  76.0180 0010806 128.8354   1.8258 15.39923976363340
NUSAT-2 (BATATA)        
1 41558U 16033C   22337.49679153  .00017505  00000+0  41469-3 0  9991
2 41558  97.4142  82.7220 0010436 118.3589  12.3183 15.41770485363644
CARTOSAT-2C             
1 41599U 16040A   22337.42590922  .00003427  00000+0  16551-3 0  9995
2 41599  97.4657  35.3428 0012780 316.4401 167.2800 15.19264757357589
SKYSAT-C1               
1 41601U 16040C   22336.76996036  .00009290  00000+0  24286-3 0  9999
2 41601  97.1399  47.8418 0002262  85.8023 274.3482 15.38969340359872
LAPAN-A3                
1 41603U 16040E   22337.46613532  .00001462  00000+0  68446-4 0  9996
2 41603  97.1884   7.0069 0011337 289.9245 206.1302 15.21183787357720
BIROS                   
1 41604U 16040F   22337.16484268  .00004308  00000+0  17124-3 0  9994
2 41604  97.1911  15.1738 0009549 253.9986 106.0201 15.25772566358179
GAOFEN 3                
1 41727U 16049A   22337.47288342 -.00000476  00000+0 -13118-3 0  9991
2 41727  98.4079 343.3442 0001489 111.5311 248.5958 14.42217889332452
SKYSAT-C4               
1 41771U 16058B   22336.47298270  .00009443  00000+0  24755-3 0  9990
2 41771  97.0994  36.5871 0003609 123.5854 236.5737 15.38871562346783
SKYSAT-C5               
1 41772U 16058C   22337.54070005  .00004813  00000+0  17705-3 0  9997
2 41772  97.2457  36.5050 0001498  87.4861 272.6550 15.28334187345586
SKYSAT-C2               
1 41773U 16058D   22337.43073019  .00008792  00000+0  23066-3 0  9991
2 41773  97.1008  37.9186 0002859 119.0219 241.1314 15.38872271346957
SKYSAT-C3               
1 41774U 16058E   22337.14861319  .00013554  00000+0  29027-3 0  9993
2 41774  97.0999  39.0984 0002582 117.7909 242.3602 15.44885138347002
ALSAT 1B                
1 41785U 16059C   22337.43035015  .00000230  00000+0  46018-4 0  9991
2 41785  97.8883  16.3911 0010861  52.8591 307.3618 14.70155222330640
PATHFINDER 1            
1 41787U 16059E   22337.36304681  .00000389  00000+0  82156-4 0  9991
2 41787  97.8913  14.4398 0030452 354.6769   5.4107 14.64181807330451
SCATSAT 1               
1 41790U 16059H   22336.60168086  .00000148  00000+0  48488-4 0  9991
2 41790  98.2991  18.5122 0006050  58.4311 301.7474 14.50963334327458
GOKTURK 1A              
1 41875U 16073A   22337.57456020  .00000343  00000+0  76350-4 0  9992
2 41875  98.1128 229.7746 0001673  81.6857 278.4544 14.62783323320003
RESOURCESAT-2A          
1 41877U 16074A   22337.51040919 -.00001287  00000+0 -56670-3 0  9997
2 41877  98.7039  50.5820 0001471 153.1690 206.9501 14.21626183310789
